{
  "type": "FeatureCollection",
  "features": [
    {
      "type": "Feature",
      "properties": {
        "norad_id": 32128,
        "name": "FENGYUN 1C DEB",
        "group": "fengyun-1c-debris",
        "lat": -61.86504756123249,
        "lon": 64.03169504691652,
        "alt_km": 1021.4972979333361,
        "timestamp": "2025-12-26T18:39:32.565516+00:00",
        "meta_object_name": "FENGYUN 1C DEB",
        "meta_object_id": "1999-025CRW",
        "meta_epoch": "2025-12-26T08:38:47.203584",
        "meta_mean_motion": 13.94261706,
        "meta_eccentricity": 0.03974792,
        "meta_inclination": 99.0308,
        "meta_ra_of_asc_node": 46.3206,
        "meta_arg_of_pericenter": 185.521,
        "meta_mean_anomaly": 174.1503,
        "meta_ephemeris_type": 0,
        "meta_classification_type": "U",
        "meta_norad_cat_id": 32128,
        "meta_element_set_no": 999,
        "meta_rev_at_epoch": 63175,
        "meta_bstar": 0.00068445185,
        "meta_mean_motion_dot": 1.709e-05,
        "meta_mean_motion_ddot": 0,
        "tle_line1": "1 32128U 99025CRW 25360.36026856  .00001709  00000+0  68445-3 0  9999",
        "tle_line2": "2 32128  99.0308  46.3206 0397479 185.5210 174.1503 13.94261706631751"
      },
      "geometry": {
        "type": "Point",
        "coordinates": [
          64.03169504691652,
          -61.86504756123249
        ]
      }
    },
    {
      "type": "Feature",
      "properties": {
        "norad_id": 32129,
        "name": "FENGYUN 1C DEB",
        "group": "fengyun-1c-debris",
        "lat": 60.28595124765634,
        "lon": -44.05947641807616,
        "alt_km": 818.0959393305648,
        "timestamp": "2025-12-26T18:39:32.565528+00:00",
        "meta_object_name": "FENGYUN 1C DEB",
        "meta_object_id": "1999-025CRX",
        "meta_epoch": "2025-12-24T07:24:14.641056",
        "meta_mean_motion": 14.28606563,
        "meta_eccentricity": 0.00672143,
        "meta_inclination": 99.0579,
        "meta_ra_of_asc_node": 117.1473,
        "meta_arg_of_pericenter": 0.1462,
        "meta_mean_anomaly": 26.8014,
        "meta_ephemeris_type": 0,
        "meta_classification_type": "U",
        "meta_norad_cat_id": 32129,
        "meta_element_set_no": 999,
        "meta_rev_at_epoch": 94392,
        "meta_bstar": 0.0021405461,
        "meta_mean_motion_dot": 5.462e-05,
        "meta_mean_motion_ddot": 0,
        "tle_line1": "1 32129U 99025CRX 25358.30850279  .00005462  00000+0  21405-2 0  9999",
        "tle_line2": "2 32129  99.0579 117.1473 0067214   0.1462  26.8014 14.28606563943924"
      },
      "geometry": {
        "type": "Point",
        "coordinates": [
          -44.05947641807616,
          60.28595124765634
        ]
      }
    },
    {
      "type": "Feature",
      "properties": {
        "norad_id": 32130,
        "name": "FENGYUN 1C DEB",
        "group": "fengyun-1c-debris",
        "lat": 75.4441480506252,
        "lon": 130.6493735113303,
        "alt_km": 810.1022372649923,
        "timestamp": "2025-12-26T18:39:32.565538+00:00",
        "meta_object_name": "FENGYUN 1C DEB",
        "meta_object_id": "1999-025CRY",
        "meta_epoch": "2025-12-26T09:56:29.465088",
        "meta_mean_motion": 14.37585253,
        "meta_eccentricity": 0.00823146,
        "meta_inclination": 98.904,
        "meta_ra_of_asc_node": 167.4124,
        "meta_arg_of_pericenter": 289.5503,
        "meta_mean_anomaly": 69.6808,
        "meta_ephemeris_type": 0,
        "meta_classification_type": "U",
        "meta_norad_cat_id": 32130,
        "meta_element_set_no": 999,
        "meta_rev_at_epoch": 96431,
        "meta_bstar": 0.00049975738,
        "meta_mean_motion_dot": 1.51e-05,
        "meta_mean_motion_ddot": 0,
        "tle_line1": "1 32130U 99025CRY 25360.41422992  .00001510  00000+0  49976-3 0  9997",
        "tle_line2": "2 32130  98.9040 167.4124 0082314 289.5503  69.6808 14.37585253964319"
      },
      "geometry": {
        "type": "Point",
        "coordinates": [
          130.6493735113303,
          75.4441480506252
        ]
      }
    },
    {
      "type": "Feature",
      "properties": {
        "norad_id": 32133,
        "name": "FENGYUN 1C DEB",
        "group": "fengyun-1c-debris",
        "lat": -8.858067520363955,
        "lon": 179.95695091161343,
        "alt_km": 851.6958788334441,
        "timestamp": "2025-12-26T18:39:32.565548+00:00",
        "meta_object_name": "FENGYUN 1C DEB",
        "meta_object_id": "1999-025CSB",
        "meta_epoch": "2025-12-26T11:00:03.872160",
        "meta_mean_motion": 14.18082233,
        "meta_eccentricity": 0.00363154,
        "meta_inclination": 98.4322,
        "meta_ra_of_asc_node": 0.9785,
        "meta_arg_of_pericenter": 62.3488,
        "meta_mean_anomaly": 298.1367,
        "meta_ephemeris_type": 0,
        "meta_classification_type": "U",
        "meta_norad_cat_id": 32133,
        "meta_element_set_no": 999,
        "meta_rev_at_epoch": 95169,
        "meta_bstar": 0.00019701542,
        "meta_mean_motion_dot": 3.66e-06,
        "meta_mean_motion_ddot": 0,
        "tle_line1": "1 32133U 99025CSB 25360.45837815  .00000366  00000+0  19702-3 0  9990",
        "tle_line2": "2 32133  98.4322   0.9785 0036315  62.3488 298.1367 14.18082233951698"
      },
      "geometry": {
        "type": "Point",
        "coordinates": [
          179.95695091161343,
          -8.858067520363955
        ]
      }
    },
    {
      "type": "Feature",
      "properties": {
        "norad_id": 32134,
        "name": "FENGYUN 1C DEB",
        "group": "fengyun-1c-debris",
        "lat": -35.91186179645496,
        "lon": 177.3337486422752,
        "alt_km": 640.726793863797,
        "timestamp": "2025-12-26T18:39:32.565558+00:00",
        "meta_object_name": "FENGYUN 1C DEB",
        "meta_object_id": "1999-025CSC",
        "meta_epoch": "2025-12-26T06:08:05.282016",
        "meta_mean_motion": 14.21600532,
        "meta_eccentricity": 0.02591882,
        "meta_inclination": 98.5954,
        "meta_ra_of_asc_node": 3.1134,
        "meta_arg_of_pericenter": 224.2529,
        "meta_mean_anomaly": 203.1994,
        "meta_ephemeris_type": 0,
        "meta_classification_type": "U",
        "meta_norad_cat_id": 32134,
        "meta_element_set_no": 999,
        "meta_rev_at_epoch": 95339,
        "meta_bstar": 0.00051650422,
        "meta_mean_motion_dot": 1.544e-05,
        "meta_mean_motion_ddot": 0,
        "tle_line1": "1 32134U 99025CSC 25360.25561669  .00001544  00000+0  51650-3 0  9997",
        "tle_line2": "2 32134  98.5954   3.1134 0259188 224.2529 203.1994 14.21600532953397"
      },
      "geometry": {
        "type": "Point",
        "coordinates": [
          177.3337486422752,
          -35.91186179645496
        ]
      }
    },
    {
      "type": "Feature",
      "properties": {
        "norad_id": 32137,
        "name": "FENGYUN 1C DEB",
        "group": "fengyun-1c-debris",
        "lat": 49.085181560529314,
        "lon": -41.35617735061007,
        "alt_km": 720.9569932559871,
        "timestamp": "2025-12-26T18:39:32.565568+00:00",
        "meta_object_name": "FENGYUN 1C DEB",
        "meta_object_id": "1999-025CSF",
        "meta_epoch": "2025-12-23T02:32:31.228800",
        "meta_mean_motion": 14.81363769,
        "meta_eccentricity": 0.01866336,
        "meta_inclination": 98.4426,
        "meta_ra_of_asc_node": 124.9072,
        "meta_arg_of_pericenter": 0.8839,
        "meta_mean_anomaly": 359.2666,
        "meta_ephemeris_type": 0,
        "meta_classification_type": "U",
        "meta_norad_cat_id": 32137,
        "meta_element_set_no": 999,
        "meta_rev_at_epoch": 66884,
        "meta_bstar": 0.00071247012,
        "meta_mean_motion_dot": 7.465e-05,
        "meta_mean_motion_ddot": 0,
        "tle_line1": "1 32137U 99025CSF 25357.10591700  .00007465  00000+0  71247-3 0  9991",
        "tle_line2": "2 32137  98.4426 124.9072 0186633   0.8839 359.2666 14.81363769668848"
      },
      "geometry": {
        "type": "Point",
        "coordinates": [
          -41.35617735061007,
          49.085181560529314
        ]
      }
    },
    {
      "type": "Feature",
      "properties": {
        "norad_id": 32143,
        "name": "FENGYUN 1C DEB",
        "group": "fengyun-1c-debris",
        "lat": 59.98044181761655,
        "lon": 172.44858655665055,
        "alt_km": 777.7174636033797,
        "timestamp": "2025-12-26T18:39:32.565585+00:00",
        "meta_object_name": "FENGYUN 1C DEB",
        "meta_object_id": "1999-025CSM",
        "meta_epoch": "2025-12-22T15:53:13.985088",
        "meta_mean_motion": 14.17977849,
        "meta_eccentricity": 0.01046236,
        "meta_inclination": 98.598,
        "meta_ra_of_asc_node": 333.2831,
        "meta_arg_of_pericenter": 80.3341,
        "meta_mean_anomaly": 280.9635,
        "meta_ephemeris_type": 0,
        "meta_classification_type": "U",
        "meta_norad_cat_id": 32143,
        "meta_element_set_no": 999,
        "meta_rev_at_epoch": 96074,
        "meta_bstar": 0.00015176615,
        "meta_mean_motion_dot": 2.86e-06,
        "meta_mean_motion_ddot": 0,
        "tle_line1": "1 32143U 99025CSM 25356.66196742  .00000286  00000+0  15177-3 0  9999",
        "tle_line2": "2 32143  98.5980 333.2831 0104623  80.3341 280.9635 14.17977849960748"
      },
      "geometry": {
        "type": "Point",
        "coordinates": [
          172.44858655665055,
          59.98044181761655
        ]
      }
    }
  ]
}